[{"OBJECT_NAME":"ONEWEB-0168","OBJECT_ID":"2021-025AC","EPOCH":"2026-03-09T17:31:20.501760","MEAN_MOTION":13.1347044,"ECCENTRICITY":0.00018676,"INCLINATION":87.9047,"RA_OF_ASC_NODE":339.9984,"ARG_OF_PERICENTER":76.4601,"MEAN_ANOMALY":283.6736,"EPHEMERIS_TYPE":0,"CLASSIFICATION_TYPE":"U","NORAD_CAT_ID":48068,"ELEMENT_SET_NO":999,"REV_AT_EPOCH":24050,"BSTAR":0.00070648648,"MEAN_MOTION_DOT":2.71e-6,"MEAN_MOTION_DDOT":0},{"OBJECT_NAME":"DELTA 1 DEB","OBJECT_ID":"1975-052LB","EPOCH":"2026-03-09T16:32:27.096864","MEAN_MOTION":13.27110979,"ECCENTRICITY":0.00909062,"INCLINATION":99.6693,"RA_OF_ASC_NODE":82.8398,"ARG_OF_PERICENTER":58.6017,"MEAN_ANOMALY":5.0092,"EPHEMERIS_TYPE":0,"CLASSIFICATION_TYPE":"U","NORAD_CAT_ID":26847,"ELEMENT_SET_NO":999,"REV_AT_EPOCH":39970,"BSTAR":8.7685065e-5,"MEAN_MOTION_DOT":0,"MEAN_MOTION_DDOT":0}]
